HAWK-11C                
1 62381U 24247E   26068.51221537  .00009223  00000+0  33290-3 0  9992
2 62381  45.0045 114.8762 0005900 329.7040  30.3502 15.28848020 67743
STARLINK-36545          
1 67505U 26012N   26068.08957493  .00021403  00000+0  78488-3 0  9998
2 67505  43.0060 317.4750 0002490 266.3239  93.7328 15.27585194  7670
